[{"OBJECT_NAME":"STARLINK-1143","OBJECT_ID":"2020-012B","EPOCH":"2026-03-09T22:47:16.050048","MEAN_MOTION":15.62989311,"ECCENTRICITY":0.00073955,"INCLINATION":53.0474,"RA_OF_ASC_NODE":328.6332,"ARG_OF_PERICENTER":96.968,"MEAN_ANOMALY":263.2175,"EPHEMERIS_TYPE":0,"CLASSIFICATION_TYPE":"U","NORAD_CAT_ID":45179,"ELEMENT_SET_NO":999,"REV_AT_EPOCH":33596,"BSTAR":0.0013180943,"MEAN_MOTION_DOT":0.00123267,"MEAN_MOTION_DDOT":0},{"OBJECT_NAME":"ASTROCAST-0105","OBJECT_ID":"2021-006DH","EPOCH":"2026-03-09T17:20:38.781312","MEAN_MOTION":15.64049096,"ECCENTRICITY":0.00037712,"INCLINATION":97.2264,"RA_OF_ASC_NODE":129.5719,"ARG_OF_PERICENTER":120.6716,"MEAN_ANOMALY":239.4916,"EPHEMERIS_TYPE":0,"CLASSIFICATION_TYPE":"U","NORAD_CAT_ID":47517,"ELEMENT_SET_NO":999,"REV_AT_EPOCH":28529,"BSTAR":0.00053852999,"MEAN_MOTION_DOT":0.00050985,"MEAN_MOTION_DDOT":0}]
